$$SOE
2460147.500000000, A.D. 2023-Jul-22 00:00:00.0000, -4.116134639671215E+09, -4.638013043893586E+09, 5.480523080858412E+08,
2460154.500000000, A.D. 2023-Jul-29 00:00:00.0000, -4.113988614590000E+09, -4.639869163265662E+09, 5.483438768057551E+08,
2460161.500000000, A.D. 2023-Aug-05 00:00:00.0000, -4.111841845036779E+09, -4.641724373638167E+09, 5.486353373885412E+08,
2460168.500000000, A.D. 2023-Aug-12 00:00:00.0000, -4.109694333739413E+09, -4.643578676597968E+09, 5.489266899247379E+08,
2460175.500000000, A.D. 2023-Aug-19 00:00:00.0000, -4.107546083121135E+09, -4.645432074220806E+09, 5.492179344747138E+08,
2460182.500000000, A.D. 2023-Aug-26 00:00:00.0000, -4.105397095299800E+09, -4.647284568981297E+09, 5.495090710747476E+08,
2460189.500000000, A.D. 2023-Sep-02 00:00:00.0000, -4.103247372110145E+09, -4.649136163734241E+09, 5.498000997384431E+08,
2460196.500000000, A.D. 2023-Sep-09 00:00:00.0000, -4.101096915112407E+09, -4.650986861808489E+09, 5.500910204467938E+08,
2460203.500000000, A.D. 2023-Sep-16 00:00:00.0000, -4.098945725418912E+09, -4.652836667271315E+09, 5.503818331067431E+08,
2460210.500000000, A.D. 2023-Sep-23 00:00:00.0000, -4.096793802922186E+09, -4.654685585076572E+09, 5.506725374635749E+08,
2460217.500000000, A.D. 2023-Sep-30 00:00:00.0000, -4.094641145264180E+09, -4.656533619905876E+09, 5.509631330956678E+08,
2460224.500000000, A.D. 2023-Oct-07 00:00:00.0000, -4.092487748900342E+09, -4.658380774245633E+09, 5.512536196632845E+08,
2460231.500000000, A.D. 2023-Oct-14 00:00:00.0000, -4.090333611218623E+09, -4.660227049013124E+09, 5.515439970454135E+08,
2460238.500000000, A.D. 2023-Oct-21 00:00:00.0000, -4.088178730484848E+09, -4.662072445128876E+09, 5.518342651996992E+08,
2460245.500000000, A.D. 2023-Oct-28 00:00:00.0000, -4.086023105038765E+09, -4.663916963775229E+09, 5.521244240610371E+08,
2460252.500000000, A.D. 2023-Nov-04 00:00:00.0000, -4.083866732990836E+09, -4.665760606111473E+09, 5.524144735307772E+08,
2460259.500000000, A.D. 2023-Nov-11 00:00:00.0000, -4.081709612242190E+09, -4.667603373045450E+09, 5.527044134915066E+08,
2460266.500000000, A.D. 2023-Nov-18 00:00:00.0000, -4.079551740608250E+09, -4.669445265125909E+09, 5.529942438222547E+08,
2460273.500000000, A.D. 2023-Nov-25 00:00:00.0000, -4.077393115973185E+09, -4.671286282533064E+09, 5.532839644095302E+08,
2460280.500000000, A.D. 2023-Dec-02 00:00:00.0000, -4.075233736447032E+09, -4.673126425178550E+09, 5.535735751508524E+08,
2460287.500000000, A.D. 2023-Dec-09 00:00:00.0000, -4.073073600447638E+09, -4.674965692973692E+09, 5.538630759389417E+08,
2460294.500000000, A.D. 2023-Dec-16 00:00:00.0000, -4.070912706419889E+09, -4.676804086253513E+09, 5.541524666012719E+08,
2460301.500000000, A.D. 2023-Dec-23 00:00:00.0000, -4.068751051843764E+09, -4.678641605669045E+09, 5.544417468191350E+08,
2460308.500000000, A.D. 2023-Dec-30 00:00:00.0000, -4.066588632871447E+09, -4.680478250498679E+09, 5.547309162348049E+08,
2460315.500000000, A.D. 2024-Jan-06 00:00:00.0000, -4.064425446365933E+09, -4.682314017739285E+09, 5.550199747162671E+08,
2460322.500000000, A.D. 2024-Jan-13 00:00:00.0000, -4.062261491168393E+09, -4.684148903783979E+09, 5.553089223406110E+08,
2460329.500000000, A.D. 2024-Jan-20 00:00:00.0000, -4.060096767370746E+09, -4.685982905602003E+09, 5.555977592356961E+08,
2460336.500000000, A.D. 2024-Jan-27 00:00:00.0000, -4.057931275622156E+09, -4.687816020768471E+09, 5.558864855192053E+08,
2460343.500000000, A.D. 2024-Feb-03 00:00:00.0000, -4.055765016897850E+09, -4.689648247292623E+09, 5.561751012966375E+08,
2460350.500000000, A.D. 2024-Feb-10 00:00:00.0000, -4.053597992452881E+09, -4.691479583535714E+09, 5.564636066687829E+08,
2460357.500000000, A.D. 2024-Feb-17 00:00:00.0000, -4.051430203822128E+09, -4.693310028210588E+09, 5.567520017364302E+08,
2460364.500000000, A.D. 2024-Feb-24 00:00:00.0000, -4.049261652830617E+09, -4.695139580448174E+09, 5.570402866000772E+08,
2460371.500000000, A.D. 2024-Mar-02 00:00:00.0000, -4.047092341584799E+09, -4.696968239963389E+09, 5.573284613491840E+08,
2460378.500000000, A.D. 2024-Mar-09 00:00:00.0000, -4.044922272305983E+09, -4.698796007383348E+09, 5.576165260230253E+08,
2460385.500000000, A.D. 2024-Mar-16 00:00:00.0000, -4.042751446610604E+09, -4.700622884540572E+09, 5.579044805229356E+08,
2460392.500000000, A.D. 2024-Mar-23 00:00:00.0000, -4.040579864340946E+09, -4.702448873622197E+09, 5.581923245760627E+08,
2460399.500000000, A.D. 2024-Mar-30 00:00:00.0000, -4.038407524187400E+09, -4.704273975201923E+09, 5.584800579539700E+08,
2460406.500000000, A.D. 2024-Apr-06 00:00:00.0000, -4.036234425846284E+09, -4.706098188522358E+09, 5.587676806473958E+08,
2460413.500000000, A.D. 2024-Apr-13 00:00:00.0000, -4.034060570162062E+09, -4.707921513191319E+09, 5.590551927398019E+08,
2460420.500000000, A.D. 2024-Apr-20 00:00:00.0000, -4.031885958206111E+09, -4.709743949615430E+09, 5.593425942858059E+08,
2460427.500000000, A.D. 2024-Apr-27 00:00:00.0000, -4.029710590809069E+09, -4.711565498732401E+09, 5.596298852877941E+08,
2460434.500000000, A.D. 2024-May-04 00:00:00.0000, -4.027534468458834E+09, -4.713386161745289E+09, 5.599170657052388E+08,
2460441.500000000, A.D. 2024-May-11 00:00:00.0000, -4.025357591325880E+09, -4.715205939960366E+09, 5.602041354666367E+08,
2460448.500000000, A.D. 2024-May-18 00:00:00.0000, -4.023179959333908E+09, -4.717024834706697E+09, 5.604910944784572E+08,
2460455.500000000, A.D. 2024-May-25 00:00:00.0000, -4.021001572251098E+09, -4.718842847344236E+09, 5.607779426284266E+08,
2460462.500000000, A.D. 2024-Jun-01 00:00:00.0000, -4.018822429742135E+09, -4.720659979417542E+09, 5.610646797731891E+08,
2460469.500000000, A.D. 2024-Jun-08 00:00:00.0000, -4.016642531134634E+09, -4.722476232977752E+09, 5.613513056861148E+08,
2460476.500000000, A.D. 2024-Jun-15 00:00:00.0000, -4.014461874500452E+09, -4.724291610527458E+09, 5.616378199734151E+08,
2460483.500000000, A.D. 2024-Jun-22 00:00:00.0000, -4.012280456057087E+09, -4.726106113413110E+09, 5.619242221470828E+08,
2460490.500000000, A.D. 2024-Jun-29 00:00:00.0000, -4.010098272010822E+09, -4.727919740485535E+09, 5.622105119007072E+08,
2460497.500000000, A.D. 2024-Jul-06 00:00:00.0000, -4.007915320196588E+09, -4.729732489499573E+09, 5.624966891438372E+08,
2460504.500000000, A.D. 2024-Jul-13 00:00:00.0000, -4.005731599565302E+09, -4.731544358428609E+09, 5.627827538470488E+08,
2460511.500000000, A.D. 2024-Jul-20 00:00:00.0000, -4.003547109504341E+09, -4.733355345545280E+09, 5.630687059738176E+08,
2460518.500000000, A.D. 2024-Jul-27 00:00:00.0000, -4.001361849647125E+09, -4.735165449227743E+09, 5.633545454809587E+08,
2460525.500000000, A.D. 2024-Aug-03 00:00:00.0000, -3.999175819898920E+09, -4.736974667866380E+09, 5.636402723318946E+08,
2460532.500000000, A.D. 2024-Aug-10 00:00:00.0000, -3.996989020513031E+09, -4.738782999875207E+09, 5.639258865070455E+08,
2460539.500000000, A.D. 2024-Aug-17 00:00:00.0000, -3.994801452170100E+09, -4.740590443785939E+09, 5.642113880085647E+08,
2460546.500000000, A.D. 2024-Aug-24 00:00:00.0000, -3.992613116032664E+09, -4.742396998446652E+09, 5.644967768548331E+08,
2460553.500000000, A.D. 2024-Aug-31 00:00:00.0000, -3.990424013659326E+09, -4.744202663386112E+09, 5.647820530488009E+08,
2460560.500000000, A.D. 2024-Sep-07 00:00:00.0000, -3.988234146413075E+09, -4.746007439217075E+09, 5.650672164967382E+08,
2460567.500000000, A.D. 2024-Sep-14 00:00:00.0000, -3.986043514278489E+09, -4.747811327082383E+09, 5.653522669507053E+08,
2460574.500000000, A.D. 2024-Sep-21 00:00:00.0000, -3.983852116116651E+09, -4.749614326730998E+09, 5.656372041943254E+08,
2460581.500000000, A.D. 2024-Sep-28 00:00:00.0000, -3.981659951845284E+09, -4.751416436451517E+09, 5.659220282526321E+08,
2460588.500000000, A.D. 2024-Oct-05 00:00:00.0000, -3.979467022874390E+09, -4.753217654861296E+09, 5.662067392893920E+08,
2460595.500000000, A.D. 2024-Oct-12 00:00:00.0000, -3.977273331158022E+09, -4.755017981570985E+09, 5.664913374684150E+08,
2460602.500000000, A.D. 2024-Oct-19 00:00:00.0000, -3.975078878613114E+09, -4.756817416995150E+09, 5.667758229172797E+08,
2460609.500000000, A.D. 2024-Oct-26 00:00:00.0000, -3.972883666937699E+09, -4.758615962110160E+09, 5.670601957309182E+08,
2460616.500000000, A.D. 2024-Nov-02 00:00:00.0000, -3.970687697571090E+09, -4.760413618307516E+09, 5.673444559793463E+08,
2460623.500000000, A.D. 2024-Nov-09 00:00:00.0000, -3.968490971699275E+09, -4.762210387321623E+09, 5.676286037124007E+08,
2460630.500000000, A.D. 2024-Nov-16 00:00:00.0000, -3.966293490279491E+09, -4.764006271231461E+09, 5.679126389591691E+08,
2460637.500000000, A.D. 2024-Nov-23 00:00:00.0000, -3.964095254036868E+09, -4.765801272585757E+09, 5.681965617138026E+08,
2460644.500000000, A.D. 2024-Nov-30 00:00:00.0000, -3.961896263224751E+09, -4.767595394694060E+09, 5.684803718852005E+08,
2460651.500000000, A.D. 2024-Dec-07 00:00:00.0000, -3.959696516729104E+09, -4.769388641662869E+09, 5.687640692065723E+08,
2460658.500000000, A.D. 2024-Dec-14 00:00:00.0000, -3.957496011205583E+09, -4.771181016952659E+09, 5.690476532681785E+08,
2460665.500000000, A.D. 2024-Dec-21 00:00:00.0000, -3.955294742567719E+09, -4.772972521696445E+09, 5.693311237846770E+08,
2460672.500000000, A.D. 2024-Dec-28 00:00:00.0000, -3.953092707853732E+09, -4.774763155747132E+09, 5.696144806738195E+08,
2460679.500000000, A.D. 2025-Jan-04 00:00:00.0000, -3.950889904874634E+09, -4.776552919077392E+09, 5.698977239026875E+08,
2460686.500000000, A.D. 2025-Jan-11 00:00:00.0000, -3.948686331464856E+09, -4.778341811872190E+09, 5.701808534043694E+08,
2460693.500000000, A.D. 2025-Jan-18 00:00:00.0000, -3.946481985252151E+09, -4.780129834232759E+09, 5.704638690743670E+08,
2460700.500000000, A.D. 2025-Jan-25 00:00:00.0000, -3.944276863703206E+09, -4.781916985966500E+09, 5.707467707858727E+08,
2460707.500000000, A.D. 2025-Feb-01 00:00:00.0000, -3.942070964255283E+09, -4.783703266493019E+09, 5.710295584043317E+08,
$$EOE